ONEWEB-0116             
1 48046U 21025E   25175.54899018 -.00000266  00000+0 -76244-3 0  9997
2 48046  87.8959  31.2705 0001707  88.1115 272.0210 13.13468800206700
ONEWEB-0150             
1 48047U 21025F   25175.52529487  .00000128  00000+0  31435-3 0  9994
2 48047  87.8959  31.2729 0001662  79.4757 280.6560 13.13469147206597
ONEWEB-0107             
1 48048U 21025G   25175.52698266  .00000103  00000+0  24834-3 0  9995
2 48048  87.8959  31.2705 0002010  77.5361 282.5993 13.13469529206573
ONEWEB-0101             
1 48049U 21025H   25175.33738703  .00000039  00000+0  73084-4 0  9996
2 48049  87.8963  31.3458 0001949  83.9495 276.1856 13.13469965206520
ONEWEB-0113             
1 48050U 21025J   25175.03925346  .00000159  00000+0  39639-3 0  9996
2 48050  87.8960  31.3611 0001649  85.0529 275.0789 13.13973917206573
ONEWEB-0112             
1 48051U 21025K   25175.60824316  .00000039  00000+0  70770-4 0  9994
2 48051  87.8960  31.2514 0001736  81.6336 278.4990 13.13468991206662
ONEWEB-0156             
1 48052U 21025L   25175.61670434 -.00000246  00000+0 -70844-3 0  9999
2 48052  87.8964  31.2608 0001787  78.6667 281.4663 13.13469260206649
ONEWEB-0161             
1 48053U 21025M   25175.59132016  .00000276  00000+0  72007-3 0  9990
2 48053  87.8963  31.2832 0001918  79.1483 280.9862 13.13468796206565
